STARLINK-1008           
1 44714U 19074B   25295.43799479  .00001034  00000+0  88303-4 0  9999
2 44714  53.0544  87.2520 0001277  89.5341 270.5795 15.06395607327913
STARLINK-1010           
1 44716U 19074D   25295.58337963  .00308932  47526-4  87635-3 0  9995
2 44716  53.0463  17.7514 0004014  43.8667 204.2681 15.92892167  5843
STARLINK-1011           
1 44717U 19074E   25295.58337963  .00234148  00000+0  11445-2 0  9999
2 44717  53.0474  74.0345 0002513 246.1762  45.8120 15.81123274  6033
STARLINK-1012           
1 44718U 19074F   25295.48222750  .00002998  00000+0  22019-3 0  9992
2 44718  53.0536  87.0547 0001236  90.6334 269.4796 15.06380620327912
STARLINK-1017           
1 44723U 19074L   25295.43901154  .00054342  00000+0  29523-2 0  9991
2 44723  53.0516  84.3579 0003284 152.7339 207.3826 15.14001677327951
STARLINK-1019           
1 44724U 19074M   25295.47854473  .00000404  00000+0  46017-4 0  9996
2 44724  53.0529  87.0735 0001444  85.3781 274.7373 15.06389266327913
STARLINK-1020           
1 44725U 19074N   25295.48408058  .00001815  00000+0  14071-3 0  9993
2 44725  53.0537 107.0478 0001465  80.5648 279.5507 15.06401045327633
STARLINK-1031           
1 44736U 19074Z   25295.58337963  .00088235  00000+0  17969-2 0  9991
2 44736  53.0507  78.4485 0006598 182.7529 345.9750 15.45513740  5940
STARLINK-1036           
1 44741U 19074AE  25295.51355985  .00002147  00000+0  16305-3 0  9996
2 44741  53.0519 106.9148 0001496  87.5777 272.5383 15.06392104327648
STARLINK-1039           
1 44744U 19074AH  25295.54966683  .00031508  00000+0  18213-2 0  9997
2 44744  53.0498 125.0929 0007364 119.1168 241.0561 15.12019667327390
STARLINK-1042           
1 44747U 19074AL  25295.52238821  .00052434  00000+0  11858-2 0  9993
2 44747  53.0481  34.0725 0003262  81.7819 278.3555 15.42663534328699
STARLINK-1043           
1 44748U 19074AM  25295.48592355  .00002892  00000+0  21312-3 0  9994
2 44748  53.0531 127.0394 0001299 103.5233 256.5901 15.06374075327367
STARLINK-1046           
1 44751U 19074AQ  25295.50066635 -.00000418  00000+0 -91844-5 0  9991
2 44751  53.0527 126.9726 0001422  96.0853 264.0298 15.06389112327366
STARLINK-1047           
1 44752U 19074AR  25295.08593147  .00014441  00000+0  51792-3 0  9993
2 44752  53.0703  71.7518 0004441 133.5594 226.5775 15.28960606328116
STARLINK-1048           
1 44753U 19074AS  25295.39376439 -.00000079  00000+0  13558-4 0  9993
2 44753  53.0527  87.4513 0001227 101.1433 258.9694 15.06388826327901
STARLINK-1053           
1 44758U 19074AX  25295.50719235  .00060101  00000+0  75265-3 0  9999
2 44758  53.0423  48.6846 0001437   5.6063 354.4964 15.59226933328472
STARLINK-1054           
1 44759U 19074AY  25295.58337963  .00386987  00000+0  15787-2 0  9997
2 44759  53.0378  74.0623 0002185 284.3440 342.8790 15.84575647  6023
STARLINK-1056           
1 44761U 19074BA  25295.58337963  .00429783  87380-4  95588-3 0  9991
2 44761  53.0363  60.6463 0001935   0.9326  88.8165 15.97365964  6060
STARLINK-1060           
1 44765U 19074BE  25295.47983517  .00057385  00000+0  68649-3 0  9997
2 44765  53.0539  95.0855 0001042   9.7519 350.3513 15.60450171327803
STARLINK-1063           
1 44768U 19074BH  25295.48959259 -.00002077  00000+0 -12060-3 0  9993
2 44768  53.0522 127.0233 0001349  89.8214 270.2929 15.06396146327379
STARLINK-1067           
1 44771U 19074BL  25295.54490188 -.00000379  00000+0 -65313-5 0  9999
2 44771  53.0534 126.7759 0001351  93.6797 266.4347 15.06384854327371
STARLINK-1068           
1 44772U 19074BM  25295.46932922  .00003906  00000+0  28102-3 0  9998
2 44772  53.0520 107.1135 0001173  87.0483 273.0640 15.06396264327636
STARLINK-1112           
1 44925U 20001M   25295.45792117  .00119941  00000+0  18535-2 0  9994
2 44925  53.0509 208.0017 0004543 118.7653 241.3813 15.53222499319561
STARLINK-1114           
1 44927U 20001P   25295.24263334  .00009084  00000+0  62768-3 0  9991
2 44927  53.0538 248.1322 0001521  96.8698 263.2464 15.06414895318988
STARLINK-1123           
1 44930U 20001S   25295.25738865  .00013748  00000+0  94009-3 0  9997
2 44930  53.0537 248.0657 0001450  80.8056 279.3098 15.06398146318984
STARLINK-1144           
1 44933U 20001V   25295.58337963  .00170314  00000+0  21928-2 0  9992
2 44933  53.0436 184.7724 0012801  67.0024 105.6288 15.57896652  5931
STARLINK-1091           
1 44940U 20001AC  25295.58337963  .00424452  82648-4  10988-2 0  9992
2 44940  53.0343 163.3384 0002414 209.0178  28.2564 15.94578024  6050
STARLINK-1094           
1 44941U 20001AD  25295.20394189  .00014600  00000+0  99700-3 0  9992
2 44941  53.0544 228.3056 0001916  88.8962 271.2247 15.06400433319250
STARLINK-1096           
1 44942U 20001AE  25295.58337963  .00279575  00000+0  10511-2 0  9997
2 44942  52.9895 350.6862 0007377  14.1455  48.1363 15.86509105  6042
STARLINK-1122           
1 44949U 20001AM  25295.09335399  .00004444  00000+0  31706-3 0  9992
2 44949  53.0546 228.7965 0001432 114.7620 245.3518 15.06399738319232
STARLINK-1080           
1 44961U 20001AZ  25295.15786636  .00017062  00000+0  11606-2 0  9993
2 44961  53.0541 208.5132 0001417  95.7593 264.3557 15.06429931319539
STARLINK-1090           
1 44968U 20001BG  25295.49328530  .00004406  00000+0  31452-3 0  9992
2 44968  53.0568 207.0069 0000846 162.1285 197.9734 15.06396474319588
STARLINK-1107           
1 44972U 20001BL  25295.58337963  .00161498  00000+0  15890-2 0  9999
2 44972  53.0076 124.9760 0005790 196.7041 309.1444 15.64967364  5996
STARLINK-1132           
1 45044U 20006A   25295.05466001  .00007807  00000+0  54235-3 0  9993
2 45044  53.0529 168.9759 0001080 101.2427 258.8683 15.06404445315848
STARLINK-1131           
1 45047U 20006D   25295.09711847  .00012585  00000+0  86198-3 0  9993
2 45047  53.0542 189.3243 0001837  82.5425 277.5773 15.06411472315565
STARLINK-1134           
1 45048U 20006E   25295.38510225  .00014469  00000+0  55743-3 0  9998
2 45048  53.0391 167.1574 0012031 110.2785 249.9507 15.26541271315904
STARLINK-1156           
1 45054U 20006L   25295.39927691  .00012350  00000+0  84572-3 0  9994
2 45054  53.0522 187.4306 0001589  95.2584 264.8587 15.06435461315613
STARLINK-1159           
1 45057U 20006P   25295.58337963  .01731339  00000+0  94259-1 0  9992
2 45057  53.0529 186.5604 0002146  90.5920 129.5032 15.10701288  5544
STARLINK-1166           
1 45060U 20006S   25295.42510469  .00011577  00000+0  79460-3 0  9996
2 45060  53.0529 187.3149 0001318  93.7289 266.3850 15.06411461315621
STARLINK-1169           
1 45061U 20006T   25295.10073544  .00014296  00000+0  97647-3 0  9998
2 45061  53.0533 188.7711 0001215 107.3585 252.7537 15.06409107315573
STARLINK-1171           
1 45062U 20006U   25295.58337963  .00113339  00000+0  40238-2 0  9990
2 45062  53.0531 185.7013 0001128 100.5572 181.6612 15.28168066  5545
STARLINK-1133           
1 45064U 20006W   25295.03254571  .00010105  00000+0  69628-3 0  9997
2 45064  53.0531 169.0731 0001379 101.7477 258.3667 15.06402478315847
STARLINK-1167           
1 45071U 20006AD  25294.92566340  .00008950  00000+0  61904-3 0  9996
2 45071  53.0542 169.5560 0001211  72.1813 287.9308 15.06394997315826
STARLINK-1168           
1 45072U 20006AE  25295.06202998  .00005653  00000+0  39808-3 0  9994
2 45072  53.0533 168.9424 0001166  97.2151 262.8971 15.06403202315841
STARLINK-1172           
1 45074U 20006AG  25295.33847601  .00004064  00000+0  29156-3 0  9992
2 45074  53.0532 167.7028 0001240 100.5539 259.5590 15.06398808315889
STARLINK-1153           
1 45080U 20006AN  25295.38271041  .00003157  00000+0  23078-3 0  9992
2 45080  53.0508 167.5018 0001177 100.0948 260.0174 15.06396358315898
STARLINK-1151           
1 45081U 20006AP  25295.36797630  .00004321  00000+0  30879-3 0  9999
2 45081  53.0537 167.6447 0001506  82.6750 277.4410 15.06400306315894
STARLINK-1190           
1 45083U 20006AR  25295.58337963  .00245376  00000+0  98351-3 0  9990
2 45083  53.0420 122.5660 0004582 174.4192 170.0214 15.85298983  6048
STARLINK-1173           
1 45084U 20006AS  25295.57133464  .00812446  36807-3  91037-3 0  9990
2 45084  53.0347  83.1170 0005150 334.2922  25.7855 16.08817235317094
STARLINK-1185           
1 45087U 20006AV  25295.01226765 -.00000161  00000+0  81048-5 0  9998
2 45087  53.0531 149.1628 0001497 102.8317 257.2840 15.06404309316120
STARLINK-1183           
1 45088U 20006AW  25295.03440432  .00029649  00000+0  20016-2 0  9996
2 45088  53.0522 149.0674 0001388 110.4160 249.6978 15.06389662316122
STARLINK-1176           
1 45090U 20006AY  25295.48471899  .00549602  15035-3  86861-3 0  9994
2 45090  53.0413  82.0903 0006599 341.9620  18.1175 16.03244763317103
STARLINK-1142           
1 45093U 20006BB  25295.58337963  .00181194  00000+0  22943-2 0  9991
2 45093  53.0344  83.2833 0002166 270.0630 259.2208 15.58384029  5921
STARLINK-1152           
1 45096U 20006BE  25295.53901859  .00012776  00000+0  54785-3 0  9999
2 45096  53.0486 130.0907 0008968 134.2596 225.9138 15.23072380316431
STARLINK-1184           
1 45098U 20006BG  25295.44721666  .00001440  00000+0  11557-3 0  9993
2 45098  53.0538 147.2130 0001374 101.1627 258.9516 15.06390686316182
STARLINK-1193           
1 45100U 20006BJ  25295.44353547  .00001732  00000+0  13522-3 0  9994
2 45100  53.0533 147.2290 0001377  81.3782 278.7363 15.06381419316186
STARLINK-1143           
1 45179U 20012B   25295.36628389  .00090526  00000+0  22760-2 0  9999
2 45179  53.0527 273.4267 0007910  15.4091 344.7152 15.39190912314473
STARLINK-1202           
1 45183U 20012F   25295.43984787  .00005920  00000+0  41595-3 0  9991
2 45183  53.0541 307.2479 0001374  94.6412 265.4734 15.06403654314007
STARLINK-1216           
1 45185U 20012H   25295.43248416  .00011146  00000+0  76610-3 0  9998
2 45185  53.0533 307.2793 0001455  76.0668 284.0483 15.06392649313947
STARLINK-1225           
